GLOBALSTAR M024         
1 25883U 99043A   24337.12666870 -.00000033  00000+0  11306-2 0  9995
2 25883  51.9998 105.2562 0002516 123.8157  47.3917 11.10160908 92976
GLOBALSTAR M027         
1 25884U 99043B   24337.54091148 -.00000006  00000+0  21649-2 0  9993
2 25884  52.0171 176.7356 0022059  36.3021 323.9265 11.04371239119555
GLOBALSTAR M053         
1 25886U 99043D   24337.58076615 -.00000049  00000+0  57285-3 0  9994
2 25886  51.9990 273.1266 0003813  96.0880  74.9624 11.27660592 97262
GLOBALSTAR M058         
1 25907U 99049A   24337.53156974 -.00000097  00000+0 -17317-3 0  9992
2 25907  51.9948 274.2946 0001206 272.9581  87.1116 11.93192977518061
GLOBALSTAR M050         
1 25908U 99049B   24337.18435097 -.00000019  00000+0  78255-3 0  9991
2 25908  52.0000 297.6153 0009520   1.4863  12.4378 12.07444163124390
GLOBALSTAR M055         
1 25910U 99049D   24337.34630948 -.00000031  00000+0  54606-3 0  9992
2 25910  51.9995 202.9295 0008220  82.0929 278.0855 12.29416094144077
